CRE (WAAS/PRN 138)      
1 28868U 05036A   25078.49333892 -.00000067  00000+0  00000+0 0  9991
2 28868   3.1426  82.2441 0003187 308.6874 216.6481  1.00273052 41896
IOR-W (EGNOS/PRN 126)   
1 28899U 05044A   25078.35526091 -.00000252  00000+0  00000+0 0  9990
2 28899   4.5106  43.3151 0002563 334.9437  70.2778  1.00271347 70968
GSAT-8 (GAGAN/PRN 127)  
1 37605U 11022A   25078.19487978  .00000091  00000+0  00000+0 0  9990
2 37605   0.9510  87.6365 0006609 214.3598   0.2185  1.00273710 48656
LUCH 5A (SDCM/PRN 140)  
1 37951U 11074B   25078.52204001 -.00000041  00000+0  00000+0 0  9998
2 37951   7.5922  80.6315 0002487 271.3014 180.1821  1.00273274 48496
SES-5 (EGNOS/PRN 136)   
1 38652U 12036A   25078.32780672  .00000041  00000+0  00000+0 0  9996
2 38652   0.0564 310.9719 0002003  50.6138 298.5139  1.00272352 39910
GSAT-10 (GAGAN/PRN 128) 
1 38779U 12051B   25078.48614488 -.00000158  00000+0  00000+0 0  9991
2 38779   0.0578 265.6042 0005504 176.5435 353.1353  1.00272419 45532
LUCH 5B (SDCM/PRN 125)  
1 38977U 12061A   25078.25213392 -.00000128  00000+0  00000+0 0  9993
2 38977   9.4935  54.2234 0001816 210.4028 346.8527  1.00273239 45044
ASTRA 5B (EGNOS/PRN 123)
1 39617U 14011B   25078.23521615  .00000144  00000+0  00000+0 0  9997
2 39617   0.0727 311.5989 0003161  28.1241 305.4980  1.00269497 40101
LUCH 5V (SDCM/PRN 141)  
1 39727U 14023A   25078.48840148 -.00000261  00000+0  00000+0 0  9995
2 39727   3.9941  73.9623 0002959 297.3866  76.4849  1.00271157 39804
GSAT-15 (GAGAN/PRN 139) 
1 41028U 15065A   25078.41677222 -.00000251  00000+0  00000+0 0  9992
2 41028   0.0425 267.2406 0002235 124.3231  29.1567  1.00273304 34235
E 117 W B (WAAS/PRN 131)
1 41589U 16038B   25078.36284297 -.00000004  00000+0  00000+0 0  9991
2 41589   0.0249  27.3415 0000004  52.5997 110.8273  1.00272519 32102
SES-15 (WAAS/PRN 133)   
1 42709U 17026A   25078.30122132  .00000067  00000+0  00000+0 0  9995
2 42709   0.0401  52.7059 0000512 327.4898 136.1524  1.00270344  2887
QZS-2 (QZSS/PRN 194)    
1 42738U 17028A   25076.35315530 -.00000164  00000+0  00000+0 0  9997
2 42738  40.1394 249.8067 0743933 270.3922 282.8176  1.00259907  3041
QZS-3 (QZSS/PRN 199)    
1 42917U 17048A   25078.42343498 -.00000342  00000+0  00000+0 0  9990
2 42917   0.0692 218.2710 0002578 150.5086  87.7857  1.00267029 27693
QZS-4 (QZSS/PRN 195)    
1 42965U 17062A   25075.53749027 -.00000328  00000+0  00000+0 0  9990
2 42965  40.3772 349.3238 0748202 269.9296 248.6236  1.00278774 27229
BEIDOU-3 G1 (PRN 130)   
1 43683U 18085A   25078.49743703 -.00000272  00000+0  00000+0 0  9995
2 43683   2.8782 100.4687 0003535 352.1454  43.6651  1.00267390 23502
BEIDOU-3 G2 (PRN 144)   
1 45344U 20017A   25078.62478359 -.00000133  00000+0  00000+0 0  9992
2 45344   2.7195  38.3695 0003041 318.6975 125.2994  1.00271656 18703
BEIDOU-3 G3 (PRN 143)   
1 45807U 20040A   25078.49152917 -.00000346  00000+0  00000+0 0  9992
2 45807   1.3504  61.5458 0003603 326.0702  77.0779  1.00266905 17510
GALAXY 30 (WAAS/PRN 135)
1 46114U 20056C   25078.15917194  .00000044  00000+0  00000+0 0  9994
2 46114   0.0208 149.8757 0001997 232.2245  87.1378  1.00273031 16733
QZS-1R (QZSS/PRN 196)   
1 49336U 21096A   25078.35534780 -.00000219  00000+0  00000+0 0  9991
2 49336  36.5149  86.3614 0750706 269.8474  84.9015  1.00284972 12450
